C/2007 F1 (LONEOS),h,10/24.3263/2007,116.4761,172.5698,153.5368,1.000117,0.400752,2000,10.0,4.0
# From MPC 66464
C/2007 G1 (LINEAR),h,11/19.6744/2008,88.5827,79.0223,223.9120,1.000233,2.641571,2000,5.5,4.0
# From MPC 60280
C/2007 H2 (Skiff),e,52.1895,203.7717,319.3018,49.64605,0.0028176,0.97158988,0.0000,02/17.0525/2007,2000,g 17.5,4.0
# From MPC 62581
C/2007 JA21 (LINEAR),h,11/06.0396/2006,89.7752,65.4423,93.8625,1.000134,5.400721,2000,8.0,4.0
# From MPC 63135
C/2007 K1 (Lemmon),e,108.5767,294.6422,52.1370,453.7985,0.0001020,0.97959525,0.0000,05/09.3396/2007,2000,g  6.0,4.0
# From MPC 82314
P/2007 K2 (Gibbs),e,7.6377,188.6478,347.4778,7.261845,0.0503656,0.68343769,244.8944,09/28.0/2020,2000,g 14.0,4.0
# From MPC 82314
C/2007 K3 (Siding Spring),e,16.4017,263.1887,23.3906,2911,0.0000063,0.99930253,0.0000,04/27.0904/2008,2000,g  9.5,4.0
# From MPC 60281
C/2007 K4 (Gibbs),h,05/01.1705/2007,98.6819,68.3921,162.4441,1.000525,3.551561,2000,10.5,4.0
# From MPC 60281
C/2007 K5 (Lovejoy),e,64.9641,193.8808,255.5439,48.36462,0.0029303,0.97600675,0.0000,04/24.1413/2007,2000,g 14.0,4.0
# From MPC 60465
C/2007 K6 (McNaught),e,105.2540,297.8697,337.0276,194.3035,0.0003639,0.98229109,0.0000,06/27.5793/2007,2000,g 11.0,4.0
# From MPC 87475
C/2007 M1 (McNaught),e,139.8209,326.8380,52.8214,1416,0.0000185,0.99469873,0.0000,08/07.5589/2008,2000,g  6.0,4.0
# From MPC112388
C/2007 M2 (Catalina),e,80.7823,357.2529,220.7649,1779,0.0000131,0.99800469,0.0000,12/10.4258/2008,2000,g  8.0,4.0
# From MPC 75514
C/2007 M3 (LINEAR),e,161.7699,41.7144,125.8989,166.1952,0.0004600,0.97895055,0.0000,08/29.5566/2007,2000,g  9.5,4.0
# From MPC 73461
C/2007 N3 (Lulin),e,178.3727,338.5343,136.9106,2213,0.0000095,0.99944995,0.0000,01/13.8050/2009,2000,g  6.5,4.0
# From MPC 60465
C/2007 O1 (LINEAR),h,06/08.0214/2007,24.4653,115.9697,159.4704,1.002217,2.862260,2000,10.0,4.0
# From MPC 60665
C/2007 P1 (McNaught),p,04/03.862/2007,118.855,89.602,0.51424,186.747,2000,13.0,4.0
# From MPC 60665
C/2007 Q1 (Garradd),p,12/10.844/2006,81.871,281.837,2.97763,5.932,2000,10.5,4.0
# From MPC 60925
P/2007 Q2 (Gilmore),e,10.2015,172.1629,162.7786,5.657579,0.0732417,0.67041691,355.6068,09/28.0/2020,2000,g 16.0,4.0
# From MPC 78183
C/2007 Q3 (Siding Spring),h,10/03.9209/2009,65.3845,149.5463,2.2040,1.000198,2.271094,2000,4.5,4.0
# From MPEC 2020-SI8
P/2007 R2 (Gibbs),e,1.2134,11.4769,352.3543,3.573166,0.1459232,0.54187875,1.7956,09/28.0/2020,2000,g 17.0,4.0
# From MPC 75708
P/2007 R4 (Garradd),e,20.2291,87.2218,282.6893,5.923397,0.0683672,0.66991759,330.1299,09/28.0/2020,2000,g 14.5,4.0
# From MPC 73462
P/2007 S1 (Zhao),e,5.9629,141.3845,245.7769,3.811914,0.1324309,0.33967961,261.9076,09/28.0/2020,2000,g 13.0,4.0
# From MPC 82314
C/2007 S2 (Lemmon),e,16.8334,296.0889,210.5914,12.54974,0.0221693,0.55394500,97.8282,09/28.0/2020,2000,g  6.5,4.0
# From MPC 62270
C/2007 T1 (McNaught),e,118.0115,111.7526,233.9296,3561,0.0000046,0.99972715,0.0000,12/13.8728/2007,2000,g 10.5,4.0
# From MPC 61994
P/2007 T2 (Kowalski),e,9.7437,3.3758,359.6351,3.047273,0.1852836,0.78517625,147.7319,09/28.0/2020,2000,g 18.5,4.0
# From MPC 65935
C/2007 T5 (Gibbs),e,45.4619,109.8211,34.5392,46.28604,0.0031299,0.91188771,14.1409,09/28.0/2020,2000,g  8.0,4.0
# From MPC 98557
C/2007 U1 (LINEAR),e,157.7753,50.3618,1.0738,6079,0.0000021,0.99945556,0.0000,08/04.2497/2008,2000,g  9.0,4.0
# From MPC 75708
P/2007 VQ11 (Catalina),e,12.3201,163.8155,277.6774,5.426749,0.0779641,0.50332317,0.7773,09/28.0/2020,2000,g 12.0,4.0
# From MPC 81467
C/2007 VO53 (Spacewatch),e,86.9391,59.7266,75.1569,6095,0.0000021,0.99920134,0.0000,04/18.7934/2010,2000,g  7.0,4.0
# From MPC 63599
C/2007 W1 (Boattini),e,9.9273,333.9176,306.9383,1821,0.0000127,0.99954119,0.0000,06/29.9948/2008,2000,g  9.5,4.0
# From MPC 63376
C/2007 W3 (LINEAR),e,78.6299,72.8040,112.7816,4086,0.0000038,0.99956044,0.0000,05/29.5460/2008,2000,g 12.0,4.0
# From MPC 62271
C/2007 Y1 (LINEAR),e,109.9553,133.2696,357.1600,4540,0.0000032,0.99926449,0.0000,03/19.7020/2008,2000,g 10.5,4.0
# From MPC 62271
C/2007 Y2 (McNaught),e,98.2844,303.3163,257.7167,831.6489,0.0000411,0.99493467,0.0000,04/05.8673/2008,2000,g  9.0,4.0
# From MPC 65935
C/2008 A1 (McNaught),e,82.9562,277.6310,348.4748,16793,0.0000005,0.99993595,0.0000,09/30.2309/2008,2000,g  6.5,4.0
# From MPC 62582
C/2008 C1 (Chen-Gao),e,61.3934,307.9319,180.9440,2668,0.0000072,0.99952240,0.0000,04/12.4635/2008,2000,g 10.0,4.0
# From MPC 75708
P/2008 CL94 (Lemmon),e,8.3477,33.3349,80.5646,6.160185,0.0644634,0.12019155,336.8319,09/28.0/2020,2000,g  8.0,4.0
# From MPC 62271
C/2008 D1 (STEREO),p,02/17.76/2008,140.28,99.09,0.0052,15.82,2000,9.0,4.0
# From MPC 62271
C/2008 D2 (STEREO),p,02/20.51/2008,143.49,90.43,0.0051,11.17,2000,9.0,4.0
# From MPC 62271
C/2008 D3 (STEREO),p,02/22.398/2008,143.994,78.905,0.00528,358.785,2000,9.0,4.0
# From MPC 62271
C/2008 D4 (STEREO),p,02/21.79/2008,145.98,77.24,0.0049,15.67,2000,9.0,4.0
# From MPC112389
C/2008 E1 (Catalina),e,34.8547,188.9429,270.4763,10.79840,0.0277757,0.54855993,123.3994,09/28.0/2020,2000,g  7.0,4.0
# From MPC 68392
C/2008 E3 (Garradd),e,105.2776,105.6400,218.1556,1801,0.0000129,0.99692282,0.0000,08/02.2039/2008,2000,g  6.0,4.0
# From MPC 63136
C/2008 E5 (STEREO),p,03/06.81/2008,144.84,89.02,0.0051,7.48,2000,9.0,4.0
# From MPC 63136
C/2008 E6 (STEREO),p,03/16.22/2008,143.75,74.07,0.0051,356.83,2000,9.0,4.0
# From MPC 65645
C/2008 E10 (STEREO),p,03/09.03/2008,140.63,92.91,0.0053,18.85,2000,9.0,4.0
# From MPC 88324
C/2008 FK75 (Lemmon-Siding Spring),h,10/03.8211/2010,61.1837,218.2194,80.4265,1.001724,4.498223,2000,5.0,4.0
# From MPC 82314
C/2008 G1 (Gibbs),e,72.9024,215.8720,63.7242,303.2935,0.0001866,0.98686922,0.0000,01/16.6216/2009,2000,g  9.5,4.0
# From MPC 63137
C/2008 H1 (LINEAR),e,75.4799,34.6351,96.1419,50.47194,0.0027487,0.94478596,12.6081,09/28.0/2020,2000,g 10.5,4.0
# From MPC 65054
C/2008 J1 (Boattini),e,62.0023,273.6673,67.8742,159.9692,0.0004871,0.98932217,0.0000,07/16.2914/2008,2000,g 10.0,4.0
# From MPC 63138
C/2008 J4 (McNaught),p,06/19.509/2008,87.502,93.393,0.44795,289.248,2000,15.0,4.0
# From MPC 63376
C/2008 J5 (Garradd),e,93.3760,286.7416,313.2620,68.65660,0.0017325,0.97131725,0.0000,03/29.4650/2008,2000,g 12.0,4.0
# From MPC 82314
C/2008 J6 (Hill),h,04/14.6990/2008,45.2621,298.0713,10.6159,1.001291,1.986356,2000,10.5,4.0
# From MPC 75709
P/2008 L2 (Hill),e,25.8548,218.0046,141.2074,6.028685,0.0665840,0.61295886,296.3911,09/28.0/2020,2000,g 12.5,4.0
# From MPC 63600
C/2008 L3 (Hill),e,100.2036,24.1895,101.7961,252.8520,0.0002451,0.99204731,0.0000,04/22.3613/2008,2000,g 14.0,4.0
# From MPC112389
C/2008 N1 (Holmes),e,115.5592,357.6680,101.0382,933.8085,0.0000345,0.99699372,0.0000,09/21.9871/2009,2000,g  9.0,4.0
# From MPC 64114
P/2008 O3 (Boattini),e,32.2422,47.6022,341.0832,8.223848,0.0417918,0.69493138,188.5564,09/28.0/2020,2000,g 13.0,4.0
# From MPC103843
C/2008 P1 (Garradd),e,64.4698,357.6185,11.6745,2721,0.0000069,0.99857614,0.0000,07/21.7393/2009,2000,g  7.0,4.0
# From MPC 65935
C/2008 Q1 (Maticic),e,118.6414,9.4358,104.6736,586.0683,0.0000695,0.99490574,0.0000,12/25.2332/2008,2000,g 10.0,4.0
# From MPC 80896
C/2008 Q3 (Garradd),e,140.7000,219.7052,340.9709,2423,0.0000083,0.99924969,0.0000,06/22.6215/2009,2000,g 10.0,4.0
# From MPC 75709
P/2008 QP20 (LINEAR-Hill),e,7.5202,322.0888,75.6733,3.550844,0.1473014,0.49250533,292.0789,09/28.0/2020,2000,g 15.5,4.0
# From MPC 64115
C/2008 R3 (LINEAR),e,43.3139,270.8207,83.8579,18.25168,0.0126401,0.89638047,54.6774,09/28.0/2020,2000,g 13.0,4.0
# From MPC 95207
C/2008 S3 (Boattini),e,162.7037,55.0477,39.9372,5885,0.0000022,0.99863967,0.0000,06/01.4330/2011,2000,g  4.0,4.0
# From MPC 66921
C/2008 T2 (Cardinal),h,06/10.3614/2009,55.8761,309.5546,216.0719,1.000004,1.215254,2000,6.0,4.0
# From MPC 65056
C/2008 W1 (STEREO),p,11/19.97/2008,142.75,84.72,0.0051,6.05,2000,9.0,4.0
# From MPC 66204
P/2008 WZ96 (LINEAR),e,7.1145,56.5234,341.8248,3.491656,0.1510626,0.47069037,309.7597,09/28.0/2020,2000,g 13.5,4.0
# From MPC 65057
C/2008 X3 (LINEAR),e,66.3258,337.9891,140.8065,43.39163,0.0034482,0.95576150,15.0866,09/28.0/2020,2000,g 13.0,4.0
# From MPC 75710
P/2008 Y3 (McNaught),e,38.7618,262.7872,238.2879,8.045645,0.0431880,0.44556471,185.4032,09/28.0/2020,2000,g  8.5,4.0
# From MPC 65647
C/2008 Y16 (STEREO),p,01/01.74/2009,143.48,94.24,0.0051,16.89,2000,9.0,4.0
# From MPC 65647
C/2008 Y17 (STEREO),p,01/01.99/2009,145.28,73.77,0.0053,354.27,2000,9.0,4.0
# From MPC 65057
C/2009 A1 (STEREO),p,01/11.785/2009,51.472,102.326,0.12713,340.014,2000,9.0,4.0
# From MPC 65647
C/2009 A6 (STEREO),p,01/03.31/2009,146.36,85.82,0.0052,7.57,2000,9.0,4.0
# From MPC 66700
C/2009 A8 (STEREO),p,01/05.46/2009,143.33,79.55,0.0055,0.87,2000,9.0,4.0
# From MPC 66700
C/2009 A9 (STEREO),p,01/11.60/2009,145.23,79.01,0.0047,4.53,2000,9.0,4.0
# From MPC 66700
C/2009 A10 (STEREO),p,01/11.66/2009,145.49,74.97,0.0050,359.65,2000,9.0,4.0
# From MPC 75710
P/2009 B1 (Boattini),e,22.2189,297.0919,128.9039,6.735406,0.0563843,0.63459021,241.3247,09/28.0/2020,2000,g 13.0,4.0
# From MPC 82315
C/2009 B2 (LINEAR),e,156.8274,18.8241,192.5477,40.93166,0.0037637,0.94302207,15.8802,09/28.0/2020,2000,g 12.5,4.0
# From MPC 66464
C/2009 B6 (STEREO),p,01/20.77/2009,143.22,80.15,0.0056,0.01,2000,9.0,4.0
# From MPC 66464
C/2009 B7 (STEREO),p,01/30.74/2009,145.64,86.84,0.0049,0.92,2000,9.0,4.0
# From MPC 66464
C/2009 C1 (STEREO),p,02/11.07/2009,145.77,89.46,0.0050,0.27,2000,9.0,4.0
# From MPC 66464
C/2009 C2 (STEREO),p,02/13.18/2009,144.28,84.79,0.0051,6.01,2000,9.0,4.0
# From MPC 72850
C/2009 E1 (Itagaki),e,127.0294,105.5996,48.6319,39.77968,0.0039284,0.98503016,0.0000,04/03.6216/2009,2000,g 11.5,4.0
# From MPC 82315
C/2009 F1 (Larson),e,171.3450,357.8981,219.5111,95.90155,0.0010495,0.98102659,0.0000,06/29.6829/2009,2000,g 15.0,4.0
# From MPC112389
C/2009 F2 (McNaught),e,59.3269,214.0515,336.5948,362.1504,0.0001430,0.98365822,0.0000,11/11.0134/2009,2000,g  6.0,4.0
# From MPC 95208
